123456789012345678901234567890123456789012345678901234567890123456789012345678901234567890
----- NORAD# 17159 -----

COSMOS 1802
1 17159U 86093A   17173.86780082 +.00000018 +00000-0 +32165-5 0  9998
2 17159 082.9304 087.2386 0041302 239.7707 162.7497 13.72714018531425

Object int ID:      1986-093A

Start time:         2017-06-23 21:45:00.14 (UTC)
Start time:         57927.90625162037 days (MJD)
Observatory:        17.274 deg, 48.3733 deg, 531.1 m
Exp time:           5 s
Visual mag:         13.5 ; 13.5
Standard mag:       5.9
Angular speed:      962.332 arcmin/min
Position angle:     185.312 deg

MJD             Date                      Az         h          R.A.       dec        Phase  Obs.r.     Angular      Shadow Sun_elev   Gal_lat    Moon_dist 
[day]           (UTC)                     [deg]      [deg]      [deg]      [deg]      [deg]  [km]       [arcm/min]          [deg]      [deg]      [deg]     

57927.906251620 2017-06-23 21:45:00.14    80.66533   77.14406   275.1409   48.81803   72.269 1027.395   962.332      false  -16.60214  24.7528    112.68936 

SatEph